[{"OBJECT_NAME":"IRIDE-MS2-HEO-1","OBJECT_ID":"2025-009CS","EPOCH":"2026-03-09T21:58:17.099616","MEAN_MOTION":14.93995138,"ECCENTRICITY":0.0002115,"INCLINATION":97.7093,"RA_OF_ASC_NODE":149.0685,"ARG_OF_PERICENTER":20.3987,"MEAN_ANOMALY":339.7317,"EPHEMERIS_TYPE":0,"CLASSIFICATION_TYPE":"U","NORAD_CAT_ID":62697,"ELEMENT_SET_NO":999,"REV_AT_EPOCH":6251,"BSTAR":0.00028163235,"MEAN_MOTION_DOT":2.946e-5,"MEAN_MOTION_DDOT":0},{"OBJECT_NAME":"CZ-6A DEB","OBJECT_ID":"2022-151BB","EPOCH":"2026-03-09T17:16:48.853632","MEAN_MOTION":14.94828895,"ECCENTRICITY":0.00449007,"INCLINATION":98.6423,"RA_OF_ASC_NODE":141.5544,"ARG_OF_PERICENTER":201.6501,"MEAN_ANOMALY":158.2819,"EPHEMERIS_TYPE":0,"CLASSIFICATION_TYPE":"U","NORAD_CAT_ID":54308,"ELEMENT_SET_NO":999,"REV_AT_EPOCH":17599,"BSTAR":0.0053055882,"MEAN_MOTION_DOT":0.00059316,"MEAN_MOTION_DDOT":0}]
